NORAD_CAT_ID,OBJECT_NAME,OBJECT_TYPE,EPOCH,MEAN_MOTION,ECCENTRICITY,INCLINATION,RA_OF_ASC_NODE,ARG_OF_PERICENTER,MEAN_ANOMALY,BSTAR,MEAN_MOTION_DOT,MEAN_MOTION_DDOT,TLE_LINE0,TLE_LINE1,TLE_LINE2,SEMIMAJOR_AXIS,PERIOD,APOGEE,PERIGEE,DECAYED
54181.0,STARLINK-5227,PAYLOAD,2023-03-21 13:22:41,15.08853679,0.0001311,53.2164,190.7549,101.0456,259.0683,0.00077819,0.00012123,0.0,0 STARLINK-5227,1 54181U 22141AA  23080.55742724  .00012123  00000-0  77819-3 0  9992,2 54181  53.2164 190.7549 0001311 101.0456 259.0683 15.08853679 22425,6917.839,95.437,540.611,538.797,0.0
54181.0,STARLINK-5227,PAYLOAD,2023-03-22 00:30:23,15.08855687,0.0001141,53.2165,188.6771,94.8182,265.2941,0.00057382,8.86e-05,0.0,0 STARLINK-5227,1 54181U 22141AA  23081.02110425  .00008860  00000-0  57382-3 0  9998,2 54181  53.2165 188.6771 0001141  94.8182 265.2941 15.08855687 22499,6917.832,95.437,540.487,538.908,0.0
54181.0,STARLINK-5227,PAYLOAD,2023-03-22 11:38:05,15.08843967,0.0002082,53.2161,186.593,105.8305,254.2917,0.00020201,2.929e-05,0.0,0 STARLINK-5227,1 54181U 22141AA  23081.48478772  .00002929  00000-0  20201-3 0  9990,2 54181  53.2161 186.5930 0002082 105.8305 254.2917 15.08843967 22561,6917.868,95.437,541.174,538.293,0.0
54181.0,STARLINK-5227,PAYLOAD,2023-03-22 13:13:28,15.08845224,0.0001449,53.2168,186.2965,106.257,253.8582,0.00022202,3.248e-05,0.0,0 STARLINK-5227,1 54181U 22141AA  23081.55102684  .00003248  00000-0  22202-3 0  9992,2 54181  53.2168 186.2965 0001449 106.2570 253.8582 15.08845224 22345,6917.864,95.437,540.732,538.727,0.0
54181.0,STARLINK-5227,PAYLOAD,2023-03-23 11:28:52,15.08845106,0.0001184,53.2147,182.1329,111.2118,248.9001,0.00026037,3.859e-05,0.0,0 STARLINK-5227,1 54181U 22141AA  23082.47838668  .00003859  00000-0  26037-3 0  9990,2 54181  53.2147 182.1329 0001184 111.2118 248.9001 15.08845106 22712,6917.865,95.437,540.549,538.911,0.0
54181.0,STARLINK-5227,PAYLOAD,2023-03-23 13:04:15,15.08847721,0.0001142,53.2153,181.8357,83.6264,276.4859,0.00027415,4.079e-05,0.0,0 STARLINK-5227,1 54181U 22141AA  23082.54462637  .00004079  00000-0  27415-3 0  9993,2 54181  53.2153 181.8357 0001142  83.6264 276.4859 15.08847721 22491,6917.857,95.437,540.512,538.932,0.0
54181.0,STARLINK-5227,PAYLOAD,2023-03-24 06:33:28,15.08903246,0.000108,53.2159,178.5626,104.8168,255.2944,0.0016492,0.00026102,0.0,0 STARLINK-5227,1 54181U 22141AA  23083.27324852  .00026102  00000-0  16492-2 0  9993,2 54181  53.2159 178.5626 0001080 104.8168 255.2944 15.08903246 22832,6917.687,95.434,540.299,538.805,0.0
54181.0,STARLINK-5227,PAYLOAD,2023-03-24 12:55:00,15.08937127,0.0001408,53.2159,177.3756,101.3966,258.7185,0.0031429,0.00050222,0.0,0 STARLINK-5227,1 54181U 22141AA  23083.53819656  .00050222  00000-0  31429-2 0  9990,2 54181  53.2159 177.3756 0001408 101.3966 258.7185 15.08937127 22879,6917.584,95.431,540.423,538.475,0.0
54181.0,STARLINK-5227,PAYLOAD,2023-03-24 16:05:45,15.08964164,0.0001259,53.2171,176.7793,105.9837,254.1294,0.003925,0.00062951,0.0,0 STARLINK-5227,1 54181U 22141AA  23083.67066560  .00062951  00000-0  39250-2 0  9995,2 54181  53.2171 176.7793 0001259 105.9837 254.1294 15.08964164 22892,6917.501,95.43,540.237,538.495,0.0
54181.0,STARLINK-5227,PAYLOAD,2023-03-25 12:45:45,15.08854574,0.0001176,53.2159,172.9128,86.7121,273.4006,-0.00073841,-0.00012025,0.0,0 STARLINK-5227,1 54181U 22141AA  23084.53177833 -.00012025  00000-0 -73841-3 0  9991,2 54181  53.2159 172.9128 0001176  86.7121 273.4006 15.08854574 23022,6917.836,95.437,540.514,538.887,0.0
54181.0,STARLINK-5227,PAYLOAD,2023-03-25 22:18:05,15.08789212,0.0001123,53.2167,171.1324,159.9068,200.1968,-0.0016967,-0.00027151,0.0,0 STARLINK-5227,1 54181U 22141AA  23084.92922609 -.00027151  00000-0 -16967-2 0  9994,2 54181  53.2167 171.1324 0001123 159.9068 200.1968 15.08789212 22855,6918.036,95.441,540.678,539.124,0.0
54181.0,STARLINK-5227,PAYLOAD,2023-03-26 17:22:46,15.08798855,0.0001245,53.2159,167.5619,98.6018,261.5115,0.0024277,0.00038517,0.0,0 STARLINK-5227,1 54181U 22141AA  23085.72415025  .00038517  00000-0  24277-2 0  9991,2 54181  53.2159 167.5619 0001245  98.6018 261.5115 15.08798855 23209,6918.006,95.44,540.732,539.01,0.0
54181.0,STARLINK-5227,PAYLOAD,2023-03-27 14:02:47,15.08858803,0.0001279,53.2156,163.6959,96.4648,263.649,0.0021651,0.00034356,0.0,0 STARLINK-5227,1 54181U 22141AA  23086.58527529  .00034356  00000-0  21651-2 0  9999,2 54181  53.2156 163.6959 0001279  96.4648 263.6490 15.08858803 23100,6917.823,95.436,540.573,538.803,0.0
54181.0,STARLINK-5227,PAYLOAD,2023-03-27 21:59:43,15.08855479,0.0001482,53.2154,162.2101,83.5866,276.5295,0.0010736,0.00016847,0.0,0 STARLINK-5227,1 54181U 22141AA  23086.91647580  .00016847  00000-0  10736-2 0  9993,2 54181  53.2154 162.2101 0001482  83.5866 276.5295 15.08855479 23154,6917.833,95.437,540.723,538.673,0.0
54181.0,STARLINK-5227,PAYLOAD,2023-03-28 12:18:11,15.08859992,0.0001307,53.215,159.5338,81.795,278.319,0.0019905,0.0003155,0.0,0 STARLINK-5227,1 54181U 22141AA  23087.51263496  .00031550  00000-0  19905-2 0  9995,2 54181  53.2150 159.5338 0001307  81.7950 278.3190 15.08859992 23474,6917.819,95.436,540.588,538.78,0.0
54181.0,STARLINK-5227,PAYLOAD,2023-03-28 13:53:34,15.08863449,0.0001228,53.215,159.236,81.9699,278.1432,0.002096,0.00033249,0.0,0 STARLINK-5227,1 54181U 22141AA  23087.57887353  .00033249  00000-0  20960-2 0  9995,2 54181  53.2150 159.2360 0001228  81.9699 278.1432 15.08863449 23255,6917.809,95.436,540.523,538.824,0.0
54181.0,STARLINK-5227,PAYLOAD,2023-03-28 17:04:20,15.08873042,0.0001237,53.2149,158.6407,80.3764,279.7368,0.0023825,0.00037868,0.0,0 STARLINK-5227,1 54181U 22141AA  23087.71135124  .00037868  00000-0  23825-2 0  9997,2 54181  53.2149 158.6407 0001237  80.3764 279.7368 15.08873042 23271,6917.779,95.435,540.5,538.789,0.0
54181.0,STARLINK-5227,PAYLOAD,2023-03-28 21:50:30,15.08847248,4.31e-05,53.2149,157.7501,129.2338,230.8692,0.00012689,1.733e-05,0.0,0 STARLINK-5227,1 54181U 22141AA  23087.91007007  .00001733  00000-0  12689-3 0  9996,2 54181  53.2149 157.7501 0000431 129.2338 230.8692 15.08847248 23537,6917.858,95.437,540.021,539.425,0.0
54181.0,STARLINK-5227,PAYLOAD,2023-03-29 12:08:58,15.08865345,0.0001169,53.2148,155.0732,94.8243,265.2883,0.0022513,0.00035748,0.0,0 STARLINK-5227,1 54181U 22141AA  23088.50623208  .00035748  00000-0  22513-2 0  9998,2 54181  53.2148 155.0732 0001169  94.8243 265.2883 15.08865345 23390,6917.803,95.436,540.477,538.859,0.0
54181.0,STARLINK-5227,PAYLOAD,2023-03-29 21:41:17,15.0885776,0.0001633,53.215,153.2909,68.9852,291.1315,0.0022853,0.00036288,0.0,0 STARLINK-5227,1 54181U 22141AA  23088.90367526  .00036288  00000-0  22853-2 0  9997,2 54181  53.2150 153.2909 0001633  68.9852 291.1315 15.08857760 23450,6917.826,95.436,540.821,538.561,0.0
54181.0,STARLINK-5227,PAYLOAD,2023-03-30 10:24:22,15.08854142,0.0001412,53.2157,150.9097,80.5884,279.5267,0.0023541,0.00037391,0.0,0 STARLINK-5227,1 54181U 22141AA  23089.43359633  .00037391  00000-0  23541-2 0  9997,2 54181  53.2157 150.9097 0001412  80.5884 279.5267 15.08854142 23760,6917.837,95.437,540.679,538.725,0.0
54181.0,STARLINK-5227,PAYLOAD,2023-03-30 15:10:32,15.08859517,0.0001568,53.2158,150.0157,86.6182,273.4989,0.0020302,0.00032188,0.0,0 STARLINK-5227,1 54181U 22141AA  23089.63231508  .00032188  00000-0  20302-2 0  9990,2 54181  53.2158 150.0157 0001568  86.6182 273.4989 15.08859517 23562,6917.821,95.436,540.77,538.601,0.0
54181.0,STARLINK-5227,PAYLOAD,2023-03-31 03:53:37,15.08856925,0.0001371,53.216,147.6385,103.0864,257.0282,0.0019367,0.00030683,0.0,0 STARLINK-5227,1 54181U 22141AA  23090.16223767  .00030683  00000-0  19367-2 0  9995,2 54181  53.2160 147.6385 0001371 103.0864 257.0282 15.08856925 23871,6917.829,95.436,540.642,538.745,0.0
54181.0,STARLINK-5227,PAYLOAD,2023-03-31 10:15:09,15.08859003,0.000143,53.2164,146.4488,91.1902,268.9254,0.0020214,0.00032046,0.0,0 STARLINK-5227,1 54181U 22141AA  23090.42719661  .00032046  00000-0  20214-2 0  9995,2 54181  53.2164 146.4488 0001430  91.1902 268.9254 15.08859003 23917,6917.822,95.436,540.677,538.698,0.0
54181.0,STARLINK-5227,PAYLOAD,2023-04-01 03:44:23,15.08873666,0.0001538,53.2168,143.1752,112.1038,248.0117,0.0014704,0.00023212,0.0,0 STARLINK-5227,1 54181U 22141AA  23091.15582641  .00023212  00000-0  14704-2 0  9994,2 54181  53.2168 143.1752 0001538 112.1038 248.0117 15.08873666 24023,6917.777,95.435,540.706,538.579,0.0
54181.0,STARLINK-5227,PAYLOAD,2023-04-01 10:05:55,15.0890821,0.0001203,53.2164,141.9904,101.3716,258.7412,0.0032042,0.00051173,0.0,0 STARLINK-5227,1 54181U 22141AA  23091.42077661  .00051173  00000-0  32042-2 0  9997,2 54181  53.2164 141.9904 0001203 101.3716 258.7412 15.08908210 24060,6917.672,95.433,540.369,538.705,0.0
54181.0,STARLINK-5227,PAYLOAD,2023-04-01 19:38:14,15.08818379,0.0002805,53.2172,140.205,77.6618,282.4688,0.0013896,0.00021884,0.0,0 STARLINK-5227,1 54181U 22141AA  23091.81821967  .00021884  00000-0  13896-2 0  9998,2 54181  53.2172 140.2050 0002805  77.6618 282.4688 15.08818379 24120,6917.946,95.439,541.752,537.871,0.0
54181.0,STARLINK-5227,PAYLOAD,2023-04-02 09:56:42,15.08815999,0.0001131,53.2176,137.5299,110.0392,250.0722,-0.00051923,-8.536e-05,0.0,0 STARLINK-5227,1 54181U 22141AA  23092.41438575 -.00008536  00000-0 -51923-3 0  9999,2 54181  53.2176 137.5299 0001131 110.0392 250.0722 15.08815999 24215,6917.954,95.439,540.601,539.036,0.0
54181.0,STARLINK-5227,PAYLOAD,2023-04-02 13:07:29,15.08812672,0.0001276,53.2177,136.9341,121.9379,238.1738,-0.00018572,-3.24e-05,0.0,0 STARLINK-5227,1 54181U 22141AA  23092.54686897 -.00003240  00000-0 -18572-3 0  9995,2 54181  53.2177 136.9341 0001276 121.9379 238.1738 15.08812672 24009,6917.964,95.439,540.712,538.946,0.0
54181.0,STARLINK-5227,PAYLOAD,2023-04-02 19:29:02,15.08819555,9.9e-05,53.2166,135.7458,103.8745,256.2357,-8.9486e-05,-1.711e-05,0.0,0 STARLINK-5227,1 54181U 22141AA  23092.81183313 -.00001711  00000-0 -89486-4 0  9994,2 54181  53.2166 135.7458 0000990 103.8745 256.2357 15.08819555 24040,6917.943,95.439,540.493,539.123,0.0
